ONEWEB-0055             
1 45443U 20020V   21146.42363281  .00000511  00000-0  14051-2 0  9997
2 45443  87.8940  28.3804 0001684  82.2074 277.9245 13.11427552 60435
ONEWEB-0093             
1 45444U 20020W   21146.39962113 -.00000399  00000-0 -11610-2 0  9997
2 45444  87.8931  28.4436 0001686  79.5972 280.5345 13.11402043 60491
ONEWEB-0029             
1 45445U 20020X   21146.42148457  .00000437  00000-0  11968-2 0  9996
2 45445  87.8934  28.4160 0001643  90.9032 269.2284 13.11418805 60473
ONEWEB-0068             
1 45446U 20020Y   21146.92503057  .00000732  00000-0  20289-2 0  9997
2 45446  87.8935  28.3376 0001530  92.1096 268.0207 13.11412358 60482
ONEWEB-0046             
1 45447U 20020Z   21146.92065977 -.00000397  00000-0 -11568-2 0  9991
2 45447  87.8930  28.3427 0001680  73.2192 286.9120 13.11417952 60497
ONEWEB-0063             
1 45448U 20020AA  21146.64598200  .00000274  00000-0  73723-3 0  9995
2 45448  87.8926  28.4045 0001747  62.1291 298.0013 13.11421823 60544
ONEWEB-0019             
1 45449U 20020AB  21146.77461570 -.00000510  00000-0 -14736-2 0  9992
2 45449  87.8933  28.3456 0001922  79.6831 280.4514 13.11415619 60408
ONEWEB-0094             
1 45450U 20020AC  21146.86724331  .00003715  00000-0  95311-2 0  9997
2 45450  87.9136  13.1457 0000277 138.2982 221.8170 13.17642193 63034
ONEWEB-0087             
1 45451U 20020AD  21146.57841507  .00000543  00000-0  14969-2 0  9997
2 45451  87.8937  28.4086 0001299 100.6822 259.4452 13.11425065 60422
ONEWEB-0082             
1 45452U 20020AE  21146.58060025  .00000546  00000-0  15037-2 0  9997
2 45452  87.8929  28.3717 0001506  97.2374 262.8925 13.11414666 60516
ONEWEB-0050             
1 45453U 20020AF  21146.87604395  .00000417  00000-0  35610-4 0  9992
2 45453  87.5441   2.3706 0026202 170.7595 189.4123 14.94614121 64524
ONEWEB-0034             
1 45454U 20020AG  21146.90322628  .00000270  00000-0  72495-3 0  9991
2 45454  87.8926  28.3330 0001589  77.1091 283.0215 13.11412671 60476
ONEWEB-0060             
1 45455U 20020AH  21146.91192244 -.00000111  00000-0 -34904-3 0  9991
2 45455  87.8928  28.3270 0001780  77.9946 282.1382 13.11409768 60436
ONEWEB-0086             
1 45456U 20020AJ  21146.39746185 -.00000373  00000-0 -10893-2 0  9993
2 45456  87.8928  28.4287 0001586  89.7412 270.3898 13.11414075 60426
ONEWEB-0088             
1 45457U 20020AK  21146.90540844  .00000231  00000-0  61691-3 0  9999
2 45457  87.8924  28.3565 0001554  72.7800 287.3498 13.11419084 60428
ONEWEB-0102             
1 47258U 20100A   21146.83354504 -.00000266  00000-0 -77414-3 0  9997
2 47258  87.8913 358.0197 0001865  95.7075 264.4266 13.12452268 22413
ONEWEB-0109             
1 47259U 20100B   21146.84413017 -.00000446  00000-0 -12743-2 0  9997
2 47259  87.8887 357.8809 0002175  93.3730 266.7647 13.12444062 22240
ONEWEB-0110             
1 47260U 20100C   21146.86531207  .00000772  00000-0  21099-2 0  9997
2 47260  87.8937 357.9186 0001966  98.5368 261.5983 13.12442999 22410
ONEWEB-0111             
1 47261U 20100D   21146.82083422  .00000105  00000-0  25524-3 0  9993
2 47261  87.9032 357.9494 0001773  96.2631 263.8699 13.12438563 22246
ONEWEB-0114             
1 47262U 20100E   21146.85259731 -.00000273  00000-0 -79335-3 0  9992
2 47262  87.8864 357.8747 0002186  86.5140 273.6239 13.12446112 22209
ONEWEB-0117             
1 47263U 20100F   21146.84623262 -.00000606  00000-0 -17201-2 0  9999
2 47263  87.8893 357.9594 0001948  91.1970 268.9381 13.12442716 22213
ONEWEB-0118             
1 47264U 20100G   21146.87376056  .00000383  00000-0  10289-2 0  9998
2 47264  87.8922 357.9428 0001992  84.0057 276.1298 13.12446358 22415
ONEWEB-0119             
1 47265U 20100H   21146.82721908 -.00000003  00000-0 -42822-4 0  9995
2 47265  87.8970 358.0294 0002041  97.3325 262.8035 13.12433904 22383
ONEWEB-0120             
1 47266U 20100J   21146.85687845 -.00000225  00000-0 -66094-3 0  9992
2 47266  87.8869 357.8450 0002054  82.7024 277.4338 13.12457470 22416
ONEWEB-0121             
1 47267U 20100K   21146.84201107 -.00000443  00000-0 -12661-2 0  9997
2 47267  87.9088 357.8867 0001710  94.8017 265.3307 13.12447310 22321
ONEWEB-0122             
1 47268U 20100L   21146.83566447 -.00000282  00000-0 -81912-3 0  9995
2 47268  87.8907 357.9363 0001982  84.9729 275.1626 13.12441264 22239
ONEWEB-0123             
1 47269U 20100M   21146.82924410 -.00000093  00000-0 -29341-3 0  9991
2 47269  87.8927 357.9775 0002275  93.0439 267.0949 13.12487103 22379
ONEWEB-0124             
1 47270U 20100N   21146.81455262  .00001576  00000-0  43453-2 0  9990
2 47270  87.8898 357.9606 0001634  84.2076 275.9238 13.12444750 22255
ONEWEB-0125             
1 47271U 20100P   21146.86954296  .00000306  00000-0  81548-3 0  9995
2 47271  87.8969 357.9162 0001761  85.6879 274.4451 13.12444423 22325
ONEWEB-0126             
1 47272U 20100Q   21146.81872452  .00000220  00000-0  57668-3 0  9995
2 47272  87.8929 358.0262 0001837 102.0161 258.1174 13.12438439 22384
ONEWEB-0127             
1 47273U 20100R   21146.85895907 -.00000093  00000-0 -29336-3 0  9991
2 47273  87.8905 357.9496 0002072  85.6565 274.4801 13.12443998 22410
ONEWEB-0128             
1 47274U 20100S   21146.87806239  .00002564  00000-0  70904-2 0  9993
2 47274  87.8930 357.9272 0002085  93.9053 266.2314 13.12441905 22435
ONEWEB-0129             
1 47275U 20100T   21146.86022500  .00000016  00000-0  92539-5 0  9995
2 47275  87.8937 357.8497 0001882  84.6434 275.4909 13.12484376 22368
ONEWEB-0130             
1 47276U 20100U   21146.88635124  .00000380  00000-0  10194-2 0  9998
2 47276  87.8889 357.8944 0002061  88.7344 271.4020 13.12449421 22336
ONEWEB-0131             
1 47277U 20100V   21146.88225152  .00000484  00000-0  13093-2 0  9991
2 47277  87.8899 357.8426 0001978  92.7976 267.3379 13.12441770 22379
ONEWEB-0132             
1 47278U 20100W   21146.83990861 -.00000131  00000-0 -39967-3 0  9993
2 47278  87.8920 358.0192 0002016  81.2727 278.8630 13.12439850 22260
ONEWEB-0133             
1 47279U 20100X   21146.85471766 -.00000210  00000-0 -61869-3 0  9998
2 47279  87.8946 357.8723 0001970  88.9736 271.1618 13.12447996 22428
ONEWEB-0134             
1 47280U 20100Y   21146.82297557  .00000895  00000-0  24516-2 0  9995
2 47280  87.8911 357.9567 0001477  87.8168 272.3129 13.12440233 22391
ONEWEB-0135             
1 47281U 20100Z   21146.86743571  .00000233  00000-0  61354-3 0  9990
2 47281  87.8918 357.9281 0002163  93.9691 266.1684 13.12441210 22421
ONEWEB-0136             
1 47282U 20100AA  21146.81235557 -.00000101  00000-0 -31716-3 0  9991
2 47282  87.8942 357.8675 0001949 102.4349 257.6998 13.12439077 22344
ONEWEB-0137             
1 47283U 20100AB  21146.85056584  .00001593  00000-0  43916-2 0  9995
2 47283  87.8882 358.0242 0002293  82.3863 277.7526 13.12434586 22251
ONEWEB-0138             
1 47284U 20100AC  21146.82505397 -.00000855  00000-0 -24118-2 0  9999
2 47284  87.8964 358.0120 0001982  91.6067 268.5289 13.12441405 22332
ONEWEB-0139             
1 47285U 20100AD  21146.87166223  .00000342  00000-0  91447-3 0  9995
2 47285  87.8959 357.9594 0001799  96.0324 264.1009 13.12442343 22414
ONEWEB-0140             
1 47286U 20100AE  21146.81658671  .00000239  00000-0  62927-3 0  9999
2 47286  87.8935 357.9673 0002116 100.0380 260.0987 13.12436034 22374
ONEWEB-0141             
1 47287U 20100AF  21146.88440711  .00000932  00000-0  25554-2 0  9995
2 47287  87.8907 357.9870 0002052  91.6782 268.4582 13.12444558 22365
ONEWEB-0142             
1 47288U 20100AG  21146.83141740 -.00000163  00000-0 -48842-3 0  9995
2 47288  87.8936 358.0391 0002064  76.3652 283.7706 13.12443077 22359
ONEWEB-0143             
1 47289U 20100AH  21146.86318102  .00000064  00000-0  14229-3 0  9997
2 47289  87.8954 357.8756 0001799  87.9682 272.1653 13.12421216 22339
ONEWEB-0144             
1 47290U 20100AJ  21146.83776137 -.00000378  00000-0 -10862-2 0  9990
2 47290  87.8885 357.8663 0001652  95.5379 264.5938 13.12440929 22251
ONEWEB-0145             
1 47291U 20100AK  21146.88012245  .00000454  00000-0  12269-2 0  9995
2 47291  87.8934 357.9356 0002015  93.5400 266.5959 13.12443986 22457
ONEWEB-0146             
1 47292U 20100AL  21146.87664948  .00000308  00000-0  82085-3 0  9990
2 47292  87.8942 357.9863 0002227  70.2237 289.9132 13.12381771 22360
ONEWEB-0147             
1 47293U 20100AM  21146.84836762 -.00000358  00000-0 -10314-2 0  9995
2 47293  87.8937 357.9590 0002880 106.6925 253.4520 13.12419710 22255
ONEWEB-0115             
1 48042U 21025A   21146.91667824 -.01357378  00000-0 -49609+0 0  9998
2 48042  87.6281 329.2033 0008814  58.4591 139.8123 14.36842379  1743
ONEWEB-0152             
1 48043U 21025B   21147.00001157 -.01420949  00000-0 -53158+0 0  9990
2 48043  87.6201 329.2140 0011819  46.5087  68.4654 14.35221852 10744
ONEWEB-0153             
1 48044U 21025C   21146.91667824 -.01379606  00000-0 -51633+0 0  9998
2 48044  87.6047 329.2437 0012726  67.2847  20.3137 14.35095152  1749
ONEWEB-0154             
1 48045U 21025D   21146.91667824 -.01360480  00000-0 -63932+0 0  9994
2 48045  87.5478 329.2546 0008971  61.4494 270.7287 14.23893273  1743
ONEWEB-0116             
1 48046U 21025E   21146.91667824 -.01344569  00000-0 -44326+0 0  9991
2 48046  87.6329 329.1802 0009119  52.8378 306.5386 14.41963219  1751
ONEWEB-0150             
1 48047U 21025F   21147.00001157 -.01421672  00000-0 -54745+0 0  9991
2 48047  87.6106 329.2177 0009233  39.4265  74.6470 14.33771067 10749
ONEWEB-0107             
1 48048U 21025G   21147.00001157 -.01436247  00000-0 -62745+0 0  9995
2 48048  87.5630 329.2178 0012701  63.8977 225.6648 14.27292092 10730
ONEWEB-0101             
1 48049U 21025H   21147.00001157 -.01264482  00000-0 -50094+0 0  9990
2 48049  87.5474 329.2056 0009630  46.8925 284.1010 14.32478699 10708
